{
  "type": "FeatureCollection",
  "features": [
    {
      "type": "Feature",
      "properties": {
        "norad_id": 34554,
        "name": "COSMOS 2251 DEB",
        "group": "cosmos-2251-debris",
        "lat": -7.683082562633714,
        "lon": 139.91646800253827,
        "alt_km": 784.5362572676395,
        "timestamp": "2025-12-02T13:52:17.655856+00:00",
        "meta_object_name": "COSMOS 2251 DEB",
        "meta_object_id": "1993-036UQ",
        "meta_epoch": "2025-12-01T09:20:45.697920",
        "meta_mean_motion": 14.37898426,
        "meta_eccentricity": 0.0022484,
        "meta_inclination": 74.0383,
        "meta_ra_of_asc_node": 319.8912,
        "meta_arg_of_pericenter": 25.0475,
        "meta_mean_anomaly": 132.7125,
        "meta_ephemeris_type": 0,
        "meta_classification_type": "U",
        "meta_norad_cat_id": 34554,
        "meta_element_set_no": 999,
        "meta_rev_at_epoch": 87592,
        "meta_bstar": 0.00040434985,
        "meta_mean_motion_dot": 1.198e-05,
        "meta_mean_motion_ddot": 0,
        "tle_line1": "1 34554U 93036UQ  25335.38941780  .00001198  00000+0  40435-3 0  9997",
        "tle_line2": "2 34554  74.0383 319.8912 0022484  25.0475 132.7125 14.37898426875928"
      },
      "geometry": {
        "type": "Point",
        "coordinates": [
          139.91646800253827,
          -7.683082562633714
        ]
      }
    },
    {
      "type": "Feature",
      "properties": {
        "norad_id": 34556,
        "name": "COSMOS 2251 DEB",
        "group": "cosmos-2251-debris",
        "lat": -20.931028443108286,
        "lon": 138.5235773104498,
        "alt_km": 647.5542170558974,
        "timestamp": "2025-12-02T13:52:17.655867+00:00",
        "meta_object_name": "COSMOS 2251 DEB",
        "meta_object_id": "1993-036US",
        "meta_epoch": "2025-12-01T22:27:40.520160",
        "meta_mean_motion": 14.77241629,
        "meta_eccentricity": 0.00093013,
        "meta_inclination": 74.015,
        "meta_ra_of_asc_node": 146.0785,
        "meta_arg_of_pericenter": 204.2469,
        "meta_mean_anomaly": 320.6588,
        "meta_ephemeris_type": 0,
        "meta_classification_type": "U",
        "meta_norad_cat_id": 34556,
        "meta_element_set_no": 999,
        "meta_rev_at_epoch": 88169,
        "meta_bstar": 0.0025039077,
        "meta_mean_motion_dot": 0.00017778,
        "meta_mean_motion_ddot": 0,
        "tle_line1": "1 34556U 93036US  25335.93588565  .00017778  00000+0  25039-2 0  9991",
        "tle_line2": "2 34556  74.0150 146.0785 0009301 204.2469 320.6588 14.77241629881690"
      },
      "geometry": {
        "type": "Point",
        "coordinates": [
          138.5235773104498,
          -20.931028443108286
        ]
      }
    },
    {
      "type": "Feature",
      "properties": {
        "norad_id": 34560,
        "name": "COSMOS 2251 DEB",
        "group": "cosmos-2251-debris",
        "lat": 69.53256068305826,
        "lon": -147.9123262289736,
        "alt_km": 659.0735787893109,
        "timestamp": "2025-12-02T13:52:17.655877+00:00",
        "meta_object_name": "COSMOS 2251 DEB",
        "meta_object_id": "1993-036UW",
        "meta_epoch": "2025-12-01T23:31:39.635904",
        "meta_mean_motion": 14.71677456,
        "meta_eccentricity": 0.0015451,
        "meta_inclination": 74.0163,
        "meta_ra_of_asc_node": 163.0799,
        "meta_arg_of_pericenter": 243.63,
        "meta_mean_anomaly": 268.3545,
        "meta_ephemeris_type": 0,
        "meta_classification_type": "U",
        "meta_norad_cat_id": 34560,
        "meta_element_set_no": 999,
        "meta_rev_at_epoch": 88093,
        "meta_bstar": 0.0022457857,
        "meta_mean_motion_dot": 0.00014018,
        "meta_mean_motion_ddot": 0,
        "tle_line1": "1 34560U 93036UW  25335.98031986  .00014018  00000+0  22458-2 0  9997",
        "tle_line2": "2 34560  74.0163 163.0799 0015451 243.6300 268.3545 14.71677456880939"
      },
      "geometry": {
        "type": "Point",
        "coordinates": [
          -147.9123262289736,
          69.53256068305826
        ]
      }
    },
    {
      "type": "Feature",
      "properties": {
        "norad_id": 34563,
        "name": "COSMOS 2251 DEB",
        "group": "cosmos-2251-debris",
        "lat": 49.178984684595356,
        "lon": -117.97236989068489,
        "alt_km": 733.3016841309845,
        "timestamp": "2025-12-02T13:52:17.655888+00:00",
        "meta_object_name": "COSMOS 2251 DEB",
        "meta_object_id": "1993-036UZ",
        "meta_epoch": "2025-12-01T19:42:09.660960",
        "meta_mean_motion": 14.46450669,
        "meta_eccentricity": 0.0013741,
        "meta_inclination": 74.0388,
        "meta_ra_of_asc_node": 224.0914,
        "meta_arg_of_pericenter": 318.5063,
        "meta_mean_anomaly": 112.859,
        "meta_ephemeris_type": 0,
        "meta_classification_type": "U",
        "meta_norad_cat_id": 34563,
        "meta_element_set_no": 999,
        "meta_rev_at_epoch": 88039,
        "meta_bstar": 0.00049499956,
        "meta_mean_motion_dot": 1.755e-05,
        "meta_mean_motion_ddot": 0,
        "tle_line1": "1 34563U 93036UZ  25335.82094515  .00001755  00000+0  49500-3 0  9992",
        "tle_line2": "2 34563  74.0388 224.0914 0013741 318.5063 112.8590 14.46450669880396"
      },
      "geometry": {
        "type": "Point",
        "coordinates": [
          -117.97236989068489,
          49.178984684595356
        ]
      }
    },
    {
      "type": "Feature",
      "properties": {
        "norad_id": 34564,
        "name": "COSMOS 2251 DEB",
        "group": "cosmos-2251-debris",
        "lat": 40.99046298802846,
        "lon": -88.78202610409515,
        "alt_km": 742.5954707590718,
        "timestamp": "2025-12-02T13:52:17.655898+00:00",
        "meta_object_name": "COSMOS 2251 DEB",
        "meta_object_id": "1993-036VA",
        "meta_epoch": "2025-12-02T05:54:47.449728",
        "meta_mean_motion": 14.40659715,
        "meta_eccentricity": 0.00185862,
        "meta_inclination": 74.0328,
        "meta_ra_of_asc_node": 257.4245,
        "meta_arg_of_pericenter": 3.3651,
        "meta_mean_anomaly": 120.4925,
        "meta_ephemeris_type": 0,
        "meta_classification_type": "U",
        "meta_norad_cat_id": 34564,
        "meta_element_set_no": 999,
        "meta_rev_at_epoch": 87855,
        "meta_bstar": 0.00037243861,
        "meta_mean_motion_dot": 1.165e-05,
        "meta_mean_motion_ddot": 0,
        "tle_line1": "1 34564U 93036VA  25336.24638252  .00001165  00000+0  37244-3 0  9999",
        "tle_line2": "2 34564  74.0328 257.4245 0018586   3.3651 120.4925 14.40659715878551"
      },
      "geometry": {
        "type": "Point",
        "coordinates": [
          -88.78202610409515,
          40.99046298802846
        ]
      }
    },
    {
      "type": "Feature",
      "properties": {
        "norad_id": 34567,
        "name": "COSMOS 2251 DEB",
        "group": "cosmos-2251-debris",
        "lat": -20.223430176467016,
        "lon": 169.01760058105705,
        "alt_km": 813.9957301248442,
        "timestamp": "2025-12-02T13:52:17.655908+00:00",
        "meta_object_name": "COSMOS 2251 DEB",
        "meta_object_id": "1993-036VD",
        "meta_epoch": "2025-12-02T01:03:00.429408",
        "meta_mean_motion": 14.23999079,
        "meta_eccentricity": 0.00747013,
        "meta_inclination": 74.04,
        "meta_ra_of_asc_node": 176.0304,
        "meta_arg_of_pericenter": 252.5589,
        "meta_mean_anomaly": 228.0525,
        "meta_ephemeris_type": 0,
        "meta_classification_type": "U",
        "meta_norad_cat_id": 34567,
        "meta_element_set_no": 999,
        "meta_rev_at_epoch": 86972,
        "meta_bstar": 0.00022992069,
        "meta_mean_motion_dot": 5.17e-06,
        "meta_mean_motion_ddot": 0,
        "tle_line1": "1 34567U 93036VD  25336.04375497  .00000517  00000+0  22992-3 0  9993",
        "tle_line2": "2 34567  74.0400 176.0304 0074701 252.5589 228.0525 14.23999079869727"
      },
      "geometry": {
        "type": "Point",
        "coordinates": [
          169.01760058105705,
          -20.223430176467016
        ]
      }
    },
    {
      "type": "Feature",
      "properties": {
        "norad_id": 34569,
        "name": "COSMOS 2251 DEB",
        "group": "cosmos-2251-debris",
        "lat": 56.599812654122815,
        "lon": 10.697124361437538,
        "alt_km": 768.0193772789753,
        "timestamp": "2025-12-02T13:52:17.655918+00:00",
        "meta_object_name": "COSMOS 2251 DEB",
        "meta_object_id": "1993-036VF",
        "meta_epoch": "2025-12-02T02:05:09.434400",
        "meta_mean_motion": 14.2470228,
        "meta_eccentricity": 0.01568133,
        "meta_inclination": 73.9904,
        "meta_ra_of_asc_node": 217.3969,
        "meta_arg_of_pericenter": 48.2546,
        "meta_mean_anomaly": 72.0417,
        "meta_ephemeris_type": 0,
        "meta_classification_type": "U",
        "meta_norad_cat_id": 34569,
        "meta_element_set_no": 999,
        "meta_rev_at_epoch": 86816,
        "meta_bstar": 0.00066040139,
        "meta_mean_motion_dot": 1.721e-05,
        "meta_mean_motion_ddot": 0,
        "tle_line1": "1 34569U 93036VF  25336.08691475  .00001721  00000+0  66040-3 0  9996",
        "tle_line2": "2 34569  73.9904 217.3969 0156813  48.2546  72.0417 14.24702280868161"
      },
      "geometry": {
        "type": "Point",
        "coordinates": [
          10.697124361437538,
          56.599812654122815
        ]
      }
    }
  ]
}